{"fetched_at":"2026-07-24T07:06:49.459Z","source":"https://celestrak.org/NORAD/elements/gp.php?NAME=SENTINEL&FORMAT=JSON","constellation":"sentinel-2","records":[{"OBJECT_NAME":"SENTINEL-2A","OBJECT_ID":"2015-028A","EPOCH":"2026-07-23T20:35:37.097664","CLASSIFICATION_TYPE":"U","MEAN_MOTION":14.30815619,"ECCENTRICITY":0.000135,"INCLINATION":98.567,"RA_OF_ASC_NODE":279.1864,"ARG_OF_PERICENTER":95.9931,"MEAN_ANOMALY":264.1406,"EPHEMERIS_TYPE":0,"NORAD_CAT_ID":40697,"ELEMENT_SET_NO":999,"REV_AT_EPOCH":57897,"BSTAR":-0.000021125,"MEAN_MOTION_DOT":-9.9e-7,"MEAN_MOTION_DDOT":0},{"OBJECT_NAME":"SENTINEL-2B","OBJECT_ID":"2017-013A","EPOCH":"2026-07-23T20:25:15.583584","CLASSIFICATION_TYPE":"U","MEAN_MOTION":14.30816223,"ECCENTRICITY":0.0001239,"INCLINATION":98.5677,"RA_OF_ASC_NODE":279.1051,"ARG_OF_PERICENTER":92.2066,"MEAN_ANOMALY":267.9259,"EPHEMERIS_TYPE":0,"NORAD_CAT_ID":42063,"ELEMENT_SET_NO":999,"REV_AT_EPOCH":48988,"BSTAR":-0.000023985,"MEAN_MOTION_DOT":-0.00000106,"MEAN_MOTION_DDOT":0},{"OBJECT_NAME":"SENTINEL-2C","OBJECT_ID":"2024-157A","EPOCH":"2026-07-23T16:13:31.806912","CLASSIFICATION_TYPE":"U","MEAN_MOTION":14.30817474,"ECCENTRICITY":0.0001057,"INCLINATION":98.5678,"RA_OF_ASC_NODE":278.9391,"ARG_OF_PERICENTER":109.0448,"MEAN_ANOMALY":251.085,"EPHEMERIS_TYPE":0,"NORAD_CAT_ID":60989,"ELEMENT_SET_NO":999,"REV_AT_EPOCH":9820,"BSTAR":0.000044422,"MEAN_MOTION_DOT":7.3e-7,"MEAN_MOTION_DDOT":0}]}
